NORAD_CAT_ID,OBJECT_NAME,OBJECT_TYPE,EPOCH,MEAN_MOTION,ECCENTRICITY,INCLINATION,RA_OF_ASC_NODE,ARG_OF_PERICENTER,MEAN_ANOMALY,BSTAR,MEAN_MOTION_DOT,MEAN_MOTION_DDOT,TLE_LINE0,TLE_LINE1,TLE_LINE2,SEMIMAJOR_AXIS,PERIOD,APOGEE,PERIGEE,DECAYED
52470.0,STARLINK-3859,PAYLOAD,2023-05-09 23:21:07,15.08860918,9.3e-05,53.2163,24.1418,93.2807,266.8291,0.00069724,0.00010832,0.0,0 STARLINK-3859,1 52470U 22049V   23129.97300656  .00010832  00000-0  69724-3 0  9993,2 52470  53.2163  24.1418 0000930  93.2807 266.8291 15.08860918 56046,6917.816,95.436,540.325,539.038,0.0
52470.0,STARLINK-3859,PAYLOAD,2023-05-10 23:11:54,15.08850581,0.0001122,53.2169,19.6819,90.392,269.7201,0.0011086,0.00017404,0.0,0 STARLINK-3859,1 52470U 22049V   23130.96660809  .00017404  00000-0  11086-2 0  9992,2 52470  53.2169  19.6819 0001122  90.3920 269.7201 15.08850581 56356,6917.848,95.437,540.489,538.937,0.0
52470.0,STARLINK-3859,PAYLOAD,2023-05-11 23:02:42,15.08838354,0.0001181,53.2166,15.222,81.181,278.9316,0.00075393,0.00011731,0.0,0 STARLINK-3859,1 52470U 22049V   23131.96021479  .00011731  00000-0  75393-3 0  9996,2 52470  53.2166  15.2220 0001181  81.1810 278.9316 15.08838354 56502,6917.885,95.438,540.567,538.933,0.0
52470.0,STARLINK-3859,PAYLOAD,2023-05-12 21:18:06,15.08847645,0.0001092,53.2161,11.0599,76.5537,283.5577,0.00054017,8.321e-05,0.0,0 STARLINK-3859,1 52470U 22049V   23132.88757427  .00008321  00000-0  54017-3 0  9998,2 52470  53.2161  11.0599 0001092  76.5537 283.5577 15.08847645 56486,6917.857,95.437,540.477,538.967,0.0
52470.0,STARLINK-3859,PAYLOAD,2023-05-12 22:53:29,15.08853182,0.000113,53.2163,10.7615,75.2217,284.89,0.00063577,9.848e-05,0.0,0 STARLINK-3859,1 52470U 22049V   23132.95381271  .00009848  00000-0  63577-3 0  9992,2 52470  53.2163  10.7615 0001130  75.2217 284.8900 15.08853182 56653,6917.84,95.437,540.487,538.923,0.0
52470.0,STARLINK-3859,PAYLOAD,2023-05-13 00:28:52,15.08857385,0.0001113,53.2164,10.4642,74.2996,285.8119,0.0007294,0.00011345,0.0,0 STARLINK-3859,1 52470U 22049V   23133.02005139  .00011345  00000-0  72940-3 0  9996,2 52470  53.2164  10.4642 0001113  74.2996 285.8119 15.08857385 56501,6917.827,95.436,540.462,538.922,0.0
52470.0,STARLINK-3859,PAYLOAD,2023-05-13 21:08:53,15.08843487,0.0001198,53.2164,6.598,78.3961,281.7165,0.00024451,3.606e-05,0.0,0 STARLINK-3859,1 52470U 22049V   23133.88117603  .00003606  00000-0  24451-3 0  9995,2 52470  53.2164   6.5980 0001198  78.3961 281.7165 15.08843487 56630,6917.87,95.437,540.563,538.906,0.0
52470.0,STARLINK-3859,PAYLOAD,2023-05-14 01:55:02,15.08847577,0.0001211,53.2166,5.7059,82.2111,277.9018,0.00052574,8.091e-05,0.0,0 STARLINK-3859,1 52470U 22049V   23134.07989510  .00008091  00000-0  52574-3 0  9991,2 52470  53.2166   5.7059 0001211  82.2111 277.9018 15.08847577 56826,6917.857,95.437,540.56,538.884,0.0
52470.0,STARLINK-3859,PAYLOAD,2023-05-14 14:38:08,15.08839134,0.0001362,53.2167,3.3286,86.4065,273.7083,0.00018275,2.622e-05,0.0,0 STARLINK-3859,1 52470U 22049V   23134.60981732  .00002622  00000-0  18275-3 0  9992,2 52470  53.2167   3.3286 0001362  86.4065 273.7083 15.08839134 56909,6917.883,95.438,540.69,538.806,0.0
52470.0,STARLINK-3859,PAYLOAD,2023-05-14 20:59:40,15.08842172,0.0001384,53.2171,2.1394,80.2971,279.8178,0.00012272,1.666e-05,0.0,0 STARLINK-3859,1 52470U 22049V   23134.87477658  .00001666  00000-0  12272-3 0  9996,2 52470  53.2171   2.1394 0001384  80.2971 279.8178 15.08842172 56787,6917.874,95.437,540.696,538.781,0.0
52470.0,STARLINK-3859,PAYLOAD,2023-05-14 22:35:03,15.08845753,0.0001322,53.2166,1.8407,83.3003,276.814,0.00023643,3.477e-05,0.0,0 STARLINK-3859,1 52470U 22049V   23134.94101359  .00003477  00000-0  23643-3 0  9992,2 52470  53.2166   1.8407 0001322  83.3003 276.8140 15.08845753 56799,6917.863,95.437,540.642,538.813,0.0
52470.0,STARLINK-3859,PAYLOAD,2023-05-15 22:25:51,15.08840203,0.000168,53.2172,357.3822,68.8677,291.2495,0.00011313,1.513e-05,0.0,0 STARLINK-3859,1 52470U 22049V   23135.93462002  .00001513  00000-0  11313-3 0  9997,2 52470  53.2172 357.3822 0001680  68.8677 291.2495 15.08840203 57103,6917.88,95.438,540.907,538.583,0.0
52470.0,STARLINK-3859,PAYLOAD,2023-05-16 14:19:42,15.08840905,0.0001388,53.217,354.4084,79.6259,280.489,0.00012339,1.676e-05,0.0,0 STARLINK-3859,1 52470U 22049V   23136.59701944  .00001676  00000-0  12339-3 0  9990,2 52470  53.2170 354.4084 0001388  79.6259 280.4890 15.08840905 57041,6917.878,95.437,540.703,538.782,0.0
52470.0,STARLINK-3859,PAYLOAD,2023-05-16 20:41:14,15.08842485,0.0001117,53.2164,353.2165,86.2846,273.8274,6.3663e-05,7.26e-06,0.0,0 STARLINK-3859,1 52470U 22049V   23136.86197810  .00000726  00000-0  63663-4 0  9993,2 52470  53.2164 353.2165 0001117  86.2846 273.8274 15.08842485 57088,6917.873,95.437,540.511,538.965,0.0
52470.0,STARLINK-3859,PAYLOAD,2023-05-17 03:02:47,15.08851462,0.0001204,53.2165,352.0268,87.359,272.754,0.00019219,2.773e-05,0.0,0 STARLINK-3859,1 52470U 22049V   23137.12693298  .00002773  00000-0  19219-3 0  9995,2 52470  53.2165 352.0268 0001204  87.3590 272.7540 15.08851462 57286,6917.845,95.437,540.543,538.877,0.0
52470.0,STARLINK-3859,PAYLOAD,2023-05-17 04:38:10,15.08836144,0.0001335,53.2164,351.73,77.0368,283.0774,-3.0207e-05,-7.69e-06,0.0,0 STARLINK-3859,1 52470U 22049V   23137.19318108 -.00000769  00000-0 -30207-4 0  9992,2 52470  53.2164 351.7300 0001335  77.0368 283.0774 15.08836144 57297,6917.892,95.438,540.681,538.834,0.0
52470.0,STARLINK-3859,PAYLOAD,2023-05-17 20:32:01,15.08848961,0.0001184,53.2163,348.7556,91.9555,268.1573,0.00038148,5.79e-05,0.0,0 STARLINK-3859,1 52470U 22049V   23137.85557750  .00005790  00000-0  38148-3 0  9991,2 52470  53.2163 348.7556 0001184  91.9555 268.1573 15.08848961 57235,6917.853,95.437,540.537,538.899,0.0
52470.0,STARLINK-3859,PAYLOAD,2023-05-17 23:42:48,15.08852892,0.0001181,53.2162,348.161,91.1376,268.9752,0.00049573,7.613e-05,0.0,0 STARLINK-3859,1 52470U 22049V   23137.98805630  .00007613  00000-0  49573-3 0  9998,2 52470  53.2162 348.1610 0001181  91.1376 268.9752 15.08852892 57414,6917.841,95.437,540.523,538.889,0.0
52470.0,STARLINK-3859,PAYLOAD,2023-05-18 20:22:49,15.08841591,0.0001289,53.2162,344.2951,86.1142,273.9997,0.00033141,4.991e-05,0.0,0 STARLINK-3859,1 52470U 22049V   23138.84917987  .00004991  00000-0  33141-3 0  9993,2 52470  53.2162 344.2951 0001289  86.1142 273.9997 15.08841591 57380,6917.876,95.437,540.632,538.849,0.0
52470.0,STARLINK-3859,PAYLOAD,2023-05-18 23:33:35,15.08841346,0.0001179,53.2163,343.7,91.3711,268.7416,0.00012629,1.723e-05,0.0,0 STARLINK-3859,1 52470U 22049V   23138.98165924  .00001723  00000-0  12629-3 0  9992,2 52470  53.2163 343.7000 0001179  91.3711 268.7416 15.08841346 57564,6917.876,95.437,540.557,538.926,0.0
52470.0,STARLINK-3859,PAYLOAD,2023-05-19 20:13:35,15.08848293,0.0001127,53.2165,339.8341,86.2758,273.8363,0.00018913,2.724e-05,0.0,0 STARLINK-3859,1 52470U 22049V   23139.84277619  .00002724  00000-0  18913-3 0  9997,2 52470  53.2165 339.8341 0001127  86.2758 273.8363 15.08848293 57530,6917.855,95.437,540.5,538.94,0.0
52470.0,STARLINK-3859,PAYLOAD,2023-05-20 05:45:54,15.08846069,0.0001052,53.2163,338.05,80.6423,279.4688,0.00017428,2.487e-05,0.0,0 STARLINK-3859,1 52470U 22049V   23140.24021702  .00002487  00000-0  17428-3 0  9999,2 52470  53.2163 338.0500 0001052  80.6423 279.4688 15.08846069 57755,6917.862,95.437,540.455,538.999,0.0
52470.0,STARLINK-3859,PAYLOAD,2023-05-20 20:04:22,15.08852199,0.0001008,53.2158,335.3747,90.0828,270.0279,0.00023091,3.39e-05,0.0,0 STARLINK-3859,1 52470U 22049V   23140.83637248  .00003390  00000-0  23091-3 0  9999,2 52470  53.2158 335.3747 0001008  90.0828 270.0279 15.08852199 57683,6917.843,95.437,540.405,539.011,0.0
52470.0,STARLINK-3859,PAYLOAD,2023-05-21 13:33:38,15.08821854,0.0001006,53.2153,332.1046,85.549,274.5617,-0.000216,-3.722e-05,0.0,0 STARLINK-3859,1 52470U 22049V   23141.56502804 -.00003722  00000-0 -21600-3 0  9994,2 52470  53.2153 332.1046 0001006  85.5490 274.5617 15.08821854 57798,6917.936,95.439,540.497,539.105,0.0
52470.0,STARLINK-3859,PAYLOAD,2023-05-21 15:09:01,15.0882162,0.0001025,53.2152,331.8072,85.8358,274.2751,-0.00021587,-3.72e-05,0.0,0 STARLINK-3859,1 52470U 22049V   23141.63126875 -.00003720  00000-0 -21587-3 0  9994,2 52470  53.2152 331.8072 0001025  85.8358 274.2751 15.08821620 57965,6917.937,95.439,540.511,539.092,0.0
52470.0,STARLINK-3859,PAYLOAD,2023-05-21 19:55:11,15.08823079,9.09e-05,53.2153,330.9154,87.5511,272.5585,-0.00017351,-3.047e-05,0.0,0 STARLINK-3859,1 52470U 22049V   23141.82998959 -.00003047  00000-0 -17351-3 0  9991,2 52470  53.2153 330.9154 0000909  87.5511 272.5585 15.08823079 57839,6917.932,95.439,540.426,539.168,0.0
52470.0,STARLINK-3859,PAYLOAD,2023-05-21 23:05:57,15.08827899,0.0001035,53.2156,330.3196,83.6616,276.4494,-9.7742e-05,-1.842e-05,0.0,0 STARLINK-3859,1 52470U 22049V   23141.96246851 -.00001842  00000-0 -97742-4 0  9997,2 52470  53.2156 330.3196 0001035  83.6616 276.4494 15.08827899 58013,6917.917,95.438,540.498,539.066,0.0
52470.0,STARLINK-3859,PAYLOAD,2023-05-22 05:27:29,15.08833484,0.0001044,53.2159,329.1304,80.8143,279.2967,3.7745e-05,3.13e-06,0.0,0 STARLINK-3859,1 52470U 22049V   23142.22742845  .00000313  00000-0  37745-4 0  9998,2 52470  53.2159 329.1304 0001044  80.8143 279.2967 15.08833484 57895,6917.9,95.438,540.488,539.043,0.0
52470.0,STARLINK-3859,PAYLOAD,2023-05-22 16:35:11,15.0884496,9.4e-05,53.2157,327.048,77.5228,282.5869,0.00051875,7.979e-05,0.0,0 STARLINK-3859,1 52470U 22049V   23142.69110735  .00007979  00000-0  51875-3 0  9990,2 52470  53.2157 327.0480 0000940  77.5228 282.5869 15.08844960 58122,6917.865,95.437,540.381,539.08,0.0
52470.0,STARLINK-3859,PAYLOAD,2023-05-22 21:21:21,15.08851853,9.36e-05,53.2157,326.1556,73.6911,286.4184,0.0010185,0.00015964,0.0,0 STARLINK-3859,1 52470U 22049V   23142.88982841  .00015964  00000-0  10185-2 0  9997,2 52470  53.2157 326.1556 0000936  73.6911 286.4184 15.08851853 57993,6917.844,95.437,540.357,539.062,0.0
